CTC2_L_00491001-01
1 22671U 22450FE  26037.47796296  .00000000  00000+0  00000-0 0  9998
2 22671 100.2000   0.0000 0000000   0.0000   0.0000 13.16009617    18
CTC2_L_00491001-02
1 22672U 23981EV  26037.47796296  .00000000  00000+0  00000-0 0  9999
2 22672 100.2000   0.0000 0000000   0.0000  45.0000 13.16009617    18
CTC2_L_00491001-03
1 22673U 26034TT  26037.47796296  .00000000  00000+0  00000-0 0  9992
2 22673 100.2000   0.0000 0000000   0.0000  90.0000 13.16009617    19
CTC2_L_00491001-04
1 22674U 24964AB  26037.47796296  .00000000  00000+0  00000-0 0  9993
2 22674 100.2000   0.0000 0000000   0.0000 135.0000 13.16009617    10
CTC2_L_00491001-05
1 22675U 23435ZV  26037.47796296  .00000000  00000+0  00000-0 0  9996
2 22675 100.2000   0.0000 0000000   0.0000 180.0000 13.16009617    11
CTC2_L_00491001-06
1 22676U 26147GC  26037.47796296  .00000000  00000+0  00000-0 0  9990
2 22676 100.2000   0.0000 0000000   0.0000 225.0000 13.16009617    12
CTC2_L_00491001-07
1 22677U 26953ZA  26037.47796296  .00000000  00000+0  00000-0 0  9996
2 22677 100.2000   0.0000 0000000   0.0000 270.0000 13.16009617    13
CTC2_L_00491001-08
1 22678U 25785WU  26037.47796296  .00000000  00000+0  00000-0 0  9999
2 22678 100.2000   0.0000 0000000   0.0000 315.0000 13.16009617    14
CTC2_L_00491002-01
1 22679U 26193Q   26037.47796296  .00000000  00000+0  00000-0 0  9994
2 22679 100.2000  12.0000 0000000   0.0000   6.0000 13.16009617    15
CTC2_L_00491002-02
1 22680U 24624LH  26037.47796296  .00000000  00000+0  00000-0 0  9993
2 22680 100.2000  12.0000 0000000   0.0000  51.0000 13.16009617    17
CTC2_L_00491002-03
1 22681U 25856OI  26037.47796296  .00000000  00000+0  00000-0 0  9992
2 22681 100.2000  12.0000 0000000   0.0000  96.0000 13.16009617    17
CTC2_L_00491002-04
1 22682U 25892BA  26037.47796296  .00000000  00000+0  00000-0 0  9993
2 22682 100.2000  12.0000 0000000   0.0000 141.0000 13.16009617    19
CTC2_L_00491002-05
1 22683U 25566XK  26037.47796296  .00000000  00000+0  00000-0 0  9992
2 22683 100.2000  12.0000 0000000   0.0000 186.0000 13.16009617    19
CTC2_L_00491002-06
1 22684U 24729QQ  26037.47796296  .00000000  00000+0  00000-0 0  9993
2 22684 100.2000  12.0000 0000000   0.0000 231.0000 13.16009617    11
CTC2_L_00491002-07
1 22685U 23824HI  26037.47796296  .00000000  00000+0  00000-0 0  9999
2 22685 100.2000  12.0000 0000000   0.0000 276.0000 13.16009617    11
CTC2_L_00491002-08
1 22686U 22473QJ  26037.47796296  .00000000  00000+0  00000-0 0  9999
2 22686 100.2000  12.0000 0000000   0.0000 321.0000 13.16009617    13
CTC2_L_00491003-01
1 22687U 24451JG  26037.47796296  .00000000  00000+0  00000-0 0  9998
2 22687 100.2000  24.0000 0000000   0.0000  12.0000 13.16009617    14
CTC2_L_00491003-02
1 22688U 26974UY  26037.47796296  .00000000  00000+0  00000-0 0  9991
2 22688 100.2000  24.0000 0000000   0.0000  57.0000 13.16009617    14
CTC2_L_00491003-03
1 22689U 22102LU  26037.47796296  .00000000  00000+0  00000-0 0  9991
2 22689 100.2000  24.0000 0000000   0.0000 102.0000 13.16009617    16
CTC2_L_00491003-04
1 22690U 24994IX  26037.47796296  .00000000  00000+0  00000-0 0  9994
2 22690 100.2000  24.0000 0000000   0.0000 147.0000 13.16009617    17
CTC2_L_00491003-05
1 22691U 22570JA  26037.47796296  .00000000  00000+0  00000-0 0  9993
2 22691 100.2000  24.0000 0000000   0.0000 192.0000 13.16009617    18
CTC2_L_00491003-06
1 22692U 25572OP  26037.47796296  .00000000  00000+0  00000-0 0  9999
2 22692 100.2000  24.0000 0000000   0.0000 237.0000 13.16009617    19
CTC2_L_00491003-07
1 22693U 26622XM  26037.47796296  .00000000  00000+0  00000-0 0  9997
2 22693 100.2000  24.0000 0000000   0.0000 282.0000 13.16009617    10
CTC2_L_00491003-08
1 22694U 26346ZQ  26037.47796296  .00000000  00000+0  00000-0 0  9991
2 22694 100.2000  24.0000 0000000   0.0000 327.0000 13.16009617    11
CTC2_L_00491004-01
1 22695U 23457NO  26037.47796296  .00000000  00000+0  00000-0 0  9992
2 22695 100.2000  36.0000 0000000   0.0000  18.0000 13.16009617    12
CTC2_L_00491004-02
1 22696U 23607JA  26037.47796296  .00000000  00000+0  00000-0 0  9990
2 22696 100.2000  36.0000 0000000   0.0000  63.0000 13.16009617    13
CTC2_L_00491004-03
1 22697U 24233GC  26037.47796296  .00000000  00000+0  00000-0 0  9997
2 22697 100.2000  36.0000 0000000   0.0000 108.0000 13.16009617    14
CTC2_L_00491004-04
1 22698U 22273MA  26037.47796296  .00000000  00000+0  00000-0 0  9990
2 22698 100.2000  36.0000 0000000   0.0000 153.0000 13.16009617    15
CTC2_L_00491004-05
1 22699U 26544FR  26037.47796296  .00000000  00000+0  00000-0 0  9996
2 22699 100.2000  36.0000 0000000   0.0000 198.0000 13.16009617    15
CTC2_L_00491004-06
1 22700U 25954UT  26037.47796296  .00000000  00000+0  00000-0 0  9993
2 22700 100.2000  36.0000 0000000   0.0000 243.0000 13.16009617    19
CTC2_L_00491004-07
1 22701U 23165UH  26037.47796296  .00000000  00000+0  00000-0 0  9996
2 22701 100.2000  36.0000 0000000   0.0000 288.0000 13.16009617    19
CTC2_L_00491004-08
1 22702U 23644KD  26037.47796296  .00000000  00000+0  00000-0 0  9999
2 22702 100.2000  36.0000 0000000   0.0000 333.0000 13.16009617    11
CTC2_L_00491005-01
1 22703U 23645YG  26037.47796296  .00000000  00000+0  00000-0 0  9991
2 22703 100.2000  48.0000 0000000   0.0000  24.0000 13.16009617    12
CTC2_L_00491005-02
1 22704U 24377WI  26037.47796296  .00000000  00000+0  00000-0 0  9995
2 22704 100.2000  48.0000 0000000   0.0000  69.0000 13.16009617    12
CTC2_L_00491005-03
1 22705U 23266ZP  26037.47796296  .00000000  00000+0  00000-0 0  9992
2 22705 100.2000  48.0000 0000000   0.0000 114.0000 13.16009617    14
CTC2_L_00491005-04
1 22706U 23181WK  26037.47796296  .00000000  00000+0  00000-0 0  9999
2 22706 100.2000  48.0000 0000000   0.0000 159.0000 13.16009617    14
CTC2_L_00491005-05
1 22707U 25742MA  26037.47796296  .00000000  00000+0  00000-0 0  9995
2 22707 100.2000  48.0000 0000000   0.0000 204.0000 13.16009617    16
CTC2_L_00491005-06
1 22708U 24811XQ  26037.47796296  .00000000  00000+0  00000-0 0  9992
2 22708 100.2000  48.0000 0000000   0.0000 249.0000 13.16009617    16
CTC2_L_00491005-07
1 22709U 22927NX  26037.47796296  .00000000  00000+0  00000-0 0  9999
2 22709 100.2000  48.0000 0000000   0.0000 294.0000 13.16009617    17
CTC2_L_00491005-08
1 22710U 24630SJ  26037.47796296  .00000000  00000+0  00000-0 0  9994
2 22710 100.2000  48.0000 0000000   0.0000 339.0000 13.16009617    19
CTC2_L_00491006-01
1 22711U 22754HE  26037.47796296  .00000000  00000+0  00000-0 0  9990
2 22711 100.2000  60.0000 0000000   0.0000  30.0000 13.16009617    12
CTC2_L_00491006-02
1 22712U 22473TS  26037.47796296  .00000000  00000+0  00000-0 0  9999
2 22712 100.2000  60.0000 0000000   0.0000  75.0000 13.16009617    12
CTC2_L_00491006-03
1 22713U 22436SL  26037.47796296  .00000000  00000+0  00000-0 0  9999
2 22713 100.2000  60.0000 0000000   0.0000 120.0000 13.16009617    14
CTC2_L_00491006-04
1 22714U 23178WR  26037.47796296  .00000000  00000+0  00000-0 0  9994
2 22714 100.2000  60.0000 0000000   0.0000 165.0000 13.16009617    14
CTC2_L_00491006-05
1 22715U 26953MG  26037.47796296  .00000000  00000+0  00000-0 0  9999
2 22715 100.2000  60.0000 0000000   0.0000 210.0000 13.16009617    16
CTC2_L_00491006-06
1 22716U 23751SV  26037.47796296  .00000000  00000+0  00000-0 0  9993
2 22716 100.2000  60.0000 0000000   0.0000 255.0000 13.16009617    16
CTC2_L_00491006-07
1 22717U 22113DI  26037.47796296  .00000000  00000+0  00000-0 0  9995
2 22717 100.2000  60.0000 0000000   0.0000 300.0000 13.16009617    18
CTC2_L_00491006-08
1 22718U 23729LT  26037.47796296  .00000000  00000+0  00000-0 0  9990
2 22718 100.2000  60.0000 0000000   0.0000 345.0000 13.16009617    18
CTC2_L_00491007-01
1 22719U 23287RY  26037.47796296  .00000000  00000+0  00000-0 0  9990
2 22719 100.2000  72.0000 0000000   0.0000  36.0000 13.16009617    19
CTC2_L_00491007-02
1 22720U 23747KQ  26037.47796296  .00000000  00000+0  00000-0 0  9993
2 22720 100.2000  72.0000 0000000   0.0000  81.0000 13.16009617    11
CTC2_L_00491007-03
1 22721U 23813CY  26037.47796296  .00000000  00000+0  00000-0 0  9998
2 22721 100.2000  72.0000 0000000   0.0000 126.0000 13.16009617    12
CTC2_L_00491007-04
1 22722U 23493ZH  26037.47796296  .00000000  00000+0  00000-0 0  9993
2 22722 100.2000  72.0000 0000000   0.0000 171.0000 13.16009617    13
CTC2_L_00491007-05
1 22723U 22738BE  26037.47796296  .00000000  00000+0  00000-0 0  9995
2 22723 100.2000  72.0000 0000000   0.0000 216.0000 13.16009617    14
CTC2_L_00491007-06
1 22724U 22566DO  26037.47796296  .00000000  00000+0  00000-0 0  9995
2 22724 100.2000  72.0000 0000000   0.0000 261.0000 13.16009617    15
CTC2_L_00491007-07
1 22725U 24236PH  26037.47796296  .00000000  00000+0  00000-0 0  9992
2 22725 100.2000  72.0000 0000000   0.0000 306.0000 13.16009617    16
CTC2_L_00491007-08
1 22726U 25169GQ  26037.47796296  .00000000  00000+0  00000-0 0  9999
2 22726 100.2000  72.0000 0000000   0.0000 351.0000 13.16009617    17
CTC2_L_00491008-01
1 22727U 26906YN  26037.47796296  .00000000  00000+0  00000-0 0  9990
2 22727 100.2000  84.0000 0000000   0.0000  42.0000 13.16009617    18
CTC2_L_00491008-02
1 22728U 22665HF  26037.47796296  .00000000  00000+0  00000-0 0  9999
2 22728 100.2000  84.0000 0000000   0.0000  87.0000 13.16009617    18
CTC2_L_00491008-03
1 22729U 23955EJ  26037.47796296  .00000000  00000+0  00000-0 0  9993
2 22729 100.2000  84.0000 0000000   0.0000 132.0000 13.16009617    10
CTC2_L_00491008-04
1 22730U 23142MO  26037.47796296  .00000000  00000+0  00000-0 0  9993
2 22730 100.2000  84.0000 0000000   0.0000 177.0000 13.16009617    11
CTC2_L_00491008-05
1 22731U 22616QQ  26037.47796296  .00000000  00000+0  00000-0 0  9999
2 22731 100.2000  84.0000 0000000   0.0000 222.0000 13.16009617    13
CTC2_L_00491008-06
1 22732U 25623KW  26037.47796296  .00000000  00000+0  00000-0 0  9991
2 22732 100.2000  84.0000 0000000   0.0000 267.0000 13.16009617    13
